NORAD_CAT_ID,OBJECT_NAME,OBJECT_TYPE,EPOCH,MEAN_MOTION,ECCENTRICITY,INCLINATION,RA_OF_ASC_NODE,ARG_OF_PERICENTER,MEAN_ANOMALY,BSTAR,MEAN_MOTION_DOT,MEAN_MOTION_DDOT,TLE_LINE0,TLE_LINE1,TLE_LINE2,SEMIMAJOR_AXIS,PERIOD,APOGEE,PERIGEE,DECAYED
49155.0,STARLINK-3060,PAYLOAD,2024-03-13 00:20:55,14.98329836,0.000298,69.9988,286.6638,269.7309,90.3509,5.4502e-05,5.57e-06,0.0,0 STARLINK-3060,1 49155U 21082AB  24073.01453039  .00000557  00000-0  54502-4 0  9995,2 49155  69.9988 286.6638 0002980 269.7309  90.3509 14.98329836139191,6950.193,96.107,574.13,569.987,0.0
49155.0,STARLINK-3060,PAYLOAD,2024-03-13 22:46:48,14.9833173,0.000296,69.9963,284.3067,269.7753,90.3067,2.09e-05,1.56e-06,0.0,0 STARLINK-3060,1 49155U 21082AB  24073.94916912  .00000156  00000-0  20900-4 0  9991,2 49155  69.9963 284.3067 0002960 269.7753  90.3067 14.98331730139337,6950.188,96.107,574.11,569.995,0.0
49155.0,STARLINK-3060,PAYLOAD,2024-03-14 00:22:56,14.98333604,0.0002962,69.9983,284.1387,270.6904,89.3916,4.2666e-05,4.16e-06,0.0,0 STARLINK-3060,1 49155U 21082AB  24074.01592733  .00000416  00000-0  42666-4 0  9993,2 49155  69.9983 284.1387 0002962 270.6904  89.3916 14.98333604139347,6950.182,96.107,574.105,569.988,0.0
49155.0,STARLINK-3060,PAYLOAD,2024-03-14 06:47:28,14.98331135,0.0002969,69.9985,283.4654,270.9049,89.177,1.2041e-05,5.1e-07,0.0,0 STARLINK-3060,1 49155U 21082AB  24074.28296925  .00000051  00000-0  12041-4 0  9995,2 49155  69.9985 283.4654 0002969 270.9049  89.1770 14.98331135139385,6950.189,96.107,574.118,569.991,0.0
49155.0,STARLINK-3060,PAYLOAD,2024-03-14 21:12:41,14.98329059,0.0002974,69.9989,281.9496,275.4151,84.6668,4.4618e-06,-4e-07,0.0,0 STARLINK-3060,1 49155U 21082AB  24074.88381051 -.00000040  00000-0  44618-5 0  9991,2 49155  69.9989 281.9496 0002974 275.4151  84.6668 14.98329059139474,6950.196,96.107,574.128,569.994,0.0
49155.0,STARLINK-3060,PAYLOAD,2024-03-14 22:48:49,14.98329497,0.0002966,69.9989,281.7814,275.3707,84.7113,9.5026e-06,2e-07,0.0,0 STARLINK-3060,1 49155U 21082AB  24074.95057011  .00000020  00000-0  95026-5 0  9991,2 49155  69.9989 281.7814 0002966 275.3707  84.7113 14.98329497139486,6950.194,96.107,574.121,569.998,0.0
49155.0,STARLINK-3060,PAYLOAD,2024-03-15 22:50:50,14.98330286,0.0002996,69.9988,279.2572,268.391,91.6906,5.1024e-06,-3.2e-07,0.0,0 STARLINK-3060,1 49155U 21082AB  24075.95196860 -.00000032  00000-0  51024-5 0  9992,2 49155  69.9988 279.2572 0002996 268.3910  91.6906 14.98330286139631,6950.192,96.107,574.139,569.975,0.0
49155.0,STARLINK-3060,PAYLOAD,2024-03-16 14:52:11,14.98326678,0.0003028,69.9984,277.5742,269.2396,90.8416,-8.9324e-06,-2e-06,0.0,0 STARLINK-3060,1 49155U 21082AB  24076.61957181 -.00000200  00000-0 -89324-5 0  9999,2 49155  69.9984 277.5742 0003028 269.2396  90.8416 14.98326678139730,6950.203,96.107,574.173,569.964,0.0
49155.0,STARLINK-3060,PAYLOAD,2024-03-16 22:52:51,14.98327035,0.000296,69.9985,276.7327,267.9486,92.1334,1.7476e-06,-7.2e-07,0.0,0 STARLINK-3060,1 49155U 21082AB  24076.95337192 -.00000072  00000-0  17476-5 0  9995,2 49155  69.9985 276.7327 0002960 267.9486  92.1334 14.98327035139787,6950.202,96.107,574.124,570.01,0.0
49155.0,STARLINK-3060,PAYLOAD,2024-03-17 14:54:11,14.98330181,0.0003047,69.9982,275.0489,269.4522,90.6288,4.0496e-05,3.9e-06,0.0,0 STARLINK-3060,1 49155U 21082AB  24077.62096880  .00000390  00000-0  40496-4 0  9995,2 49155  69.9982 275.0489 0003047 269.4522  90.6288 14.98330181139888,6950.192,96.107,574.175,569.94,0.0
49155.0,STARLINK-3060,PAYLOAD,2024-03-17 21:18:43,14.98331529,0.0003024,69.9983,274.3757,269.1231,90.9581,5.3936e-05,5.51e-06,0.0,0 STARLINK-3060,1 49155U 21082AB  24077.88800761  .00000551  00000-0  53936-4 0  9996,2 49155  69.9983 274.3757 0003024 269.1231  90.9581 14.98331529139929,6950.188,96.107,574.155,569.951,0.0
49155.0,STARLINK-3060,PAYLOAD,2024-03-17 22:54:51,14.9833172,0.0003026,69.9983,274.2074,269.2255,90.8557,5.5308e-05,5.67e-06,0.0,0 STARLINK-3060,1 49155U 21082AB  24077.95476741  .00000567  00000-0  55308-4 0  9993,2 49155  69.9983 274.2074 0003026 269.2255  90.8557 14.98331720139935,6950.188,96.107,574.156,569.949,0.0
49155.0,STARLINK-3060,PAYLOAD,2024-03-18 21:20:44,14.9832902,0.0003046,69.9983,271.8508,269.4381,90.6429,3.4197e-05,3.15e-06,0.0,0 STARLINK-3060,1 49155U 21082AB  24078.88940968  .00000315  00000-0  34197-4 0  9997,2 49155  69.9983 271.8508 0003046 269.4381  90.6429 14.98329020140077,6950.196,96.107,574.178,569.944,0.0
49155.0,STARLINK-3060,PAYLOAD,2024-03-18 22:56:53,14.98329708,0.0003015,69.9984,271.6828,268.4157,91.6657,4.2449e-05,4.13e-06,0.0,0 STARLINK-3060,1 49155U 21082AB  24078.95616906  .00000413  00000-0  42449-4 0  9995,2 49155  69.9984 271.6828 0003015 268.4157  91.6657 14.98329708140085,6950.194,96.107,574.154,569.963,0.0
49155.0,STARLINK-3060,PAYLOAD,2024-03-19 11:45:57,14.9833498,0.000284,69.9987,270.3339,268.5095,91.5739,5.85e-05,6.05e-06,0.0,0 STARLINK-3060,1 49155U 21082AB  24079.49024503  .00000605  00000-0  58500-4 0  9999,2 49155  69.9987 270.3339 0002840 268.5095  91.5739 14.98334980140165,6950.177,96.107,574.016,570.069,0.0
49155.0,STARLINK-3060,PAYLOAD,2024-03-19 21:22:45,14.98336883,0.0002872,69.9985,269.3248,264.0576,96.0255,6.5011e-05,6.83e-06,0.0,0 STARLINK-3060,1 49155U 21082AB  24079.89080171  .00000683  00000-0  65011-4 0  9997,2 49155  69.9985 269.3248 0002872 264.0576  96.0255 14.98336883140224,6950.172,96.107,574.033,570.041,0.0
49155.0,STARLINK-3060,PAYLOAD,2024-03-20 13:24:06,14.98310877,0.0003044,70.0005,267.6433,236.4129,123.674,0.00032679,3.806e-05,0.0,0 STARLINK-3060,1 49155U 21082AB  24080.55840362  .00003806  00000-0  32679-3 0  9991,2 49155  70.0005 267.6433 0003044 236.4129 123.6740 14.98310877140328,6950.252,96.108,574.233,570.001,0.0
49155.0,STARLINK-3060,PAYLOAD,2024-03-20 19:48:38,14.98316421,0.0003375,69.9988,266.9689,256.8166,103.2616,0.00013976,1.574e-05,0.0,0 STARLINK-3060,1 49155U 21082AB  24080.82545009  .00001574  00000-0  13976-3 0  9990,2 49155  69.9988 266.9689 0003375 256.8166 103.2616 14.98316421140365,6950.235,96.108,574.446,569.754,0.0
49155.0,STARLINK-3060,PAYLOAD,2024-03-20 21:24:47,14.98312873,0.0003375,69.9986,266.8,258.8379,101.2401,0.00018975,2.171e-05,0.0,0 STARLINK-3060,1 49155U 21082AB  24080.89221115  .00002171  00000-0  18975-3 0  9994,2 49155  69.9986 266.8000 0003375 258.8379 101.2401 14.98312873140375,6950.246,96.108,574.457,569.765,0.0
49155.0,STARLINK-3060,PAYLOAD,2024-03-21 13:26:07,14.98332378,0.0003155,69.9986,265.1169,270.4903,89.5895,-1.4371e-05,-2.65e-06,0.0,0 STARLINK-3060,1 49155U 21082AB  24081.55980733 -.00000265  00000-0 -14371-4 0  9997,2 49155  69.9986 265.1169 0003155 270.4903  89.5895 14.98332378140470,6950.186,96.107,574.243,569.858,0.0
49155.0,STARLINK-3060,PAYLOAD,2024-03-21 15:02:15,14.98333087,0.0003254,69.9985,264.9484,271.2336,88.845,-8.0806e-06,-1.89e-06,0.0,0 STARLINK-3060,1 49155U 21082AB  24081.62656668 -.00000189  00000-0 -80806-5 0  9994,2 49155  69.9985 264.9484 0003254 271.2336  88.8450 14.98333087140483,6950.183,96.107,574.31,569.787,0.0
49155.0,STARLINK-3060,PAYLOAD,2024-03-21 21:26:47,14.9833777,0.0003045,69.9985,264.2744,266.7342,93.3469,4.0266e-05,3.88e-06,0.0,0 STARLINK-3060,1 49155U 21082AB  24081.89360160  .00000388  00000-0  40266-4 0  9996,2 49155  69.9985 264.2744 0003045 266.7342  93.3469 14.98337770140528,6950.169,96.107,574.15,569.918,0.0
49155.0,STARLINK-3060,PAYLOAD,2024-03-22 13:28:06,14.98341019,0.0003272,69.9982,262.5908,271.0434,89.035,0.00020651,2.373e-05,0.0,0 STARLINK-3060,1 49155U 21082AB  24082.56119147  .00002373  00000-0  20651-3 0  9999,2 49155  69.9982 262.5908 0003272 271.0434  89.0350 14.98341019140624,6950.159,96.106,574.298,569.75,0.0
49155.0,STARLINK-3060,PAYLOAD,2024-03-22 19:52:38,14.98343498,0.000323,69.9984,261.9172,270.0234,90.0555,0.0002279,2.628e-05,0.0,0 STARLINK-3060,1 49155U 21082AB  24082.82822786  .00002628  00000-0  22790-3 0  9997,2 49155  69.9984 261.9172 0003230 270.0234  90.0555 14.98343498140669,6950.151,96.106,574.261,569.771,0.0
49155.0,STARLINK-3060,PAYLOAD,2024-03-22 21:28:46,14.98344285,0.0003236,69.9985,261.7491,270.6073,89.4715,0.00023363,2.697e-05,0.0,0 STARLINK-3060,1 49155U 21082AB  24082.89498692  .00002697  00000-0  23363-3 0  9992,2 49155  69.9985 261.7491 0003236 270.6073  89.4715 14.98344285140671,6950.149,96.106,574.263,569.765,0.0
49155.0,STARLINK-3060,PAYLOAD,2024-03-23 11:54:00,14.98334325,0.0002487,70.0017,260.2353,269.5444,90.543,-3.9324e-05,-5.62e-06,0.0,0 STARLINK-3060,1 49155U 21082AB  24083.49584116 -.00000562  00000-0 -39324-4 0  9992,2 49155  70.0017 260.2353 0002487 269.5444  90.5430 14.98334325140768,6950.18,96.107,573.773,570.316,0.0
49155.0,STARLINK-3060,PAYLOAD,2024-03-23 19:54:41,14.9832289,0.0003124,69.9982,259.3917,271.0629,89.0172,-0.00012468,-1.58e-05,0.0,0 STARLINK-3060,1 49155U 21082AB  24083.82964993 -.00001580  00000-0 -12468-3 0  9994,2 49155  69.9982 259.3917 0003124 271.0629  89.0172 14.98322890140819,6950.215,96.107,574.251,569.909,0.0
49155.0,STARLINK-3060,PAYLOAD,2024-03-23 21:30:49,14.98323901,0.0003105,69.9983,259.2236,270.9602,89.1201,-0.00011054,-1.412e-05,0.0,0 STARLINK-3060,1 49155U 21082AB  24083.89640917 -.00001412  00000-0 -11054-3 0  9992,2 49155  69.9983 259.2236 0003105 270.9602  89.1201 14.98323901140820,6950.212,96.107,574.235,569.919,0.0
49155.0,STARLINK-3060,PAYLOAD,2024-03-24 13:32:10,14.98333524,0.0003109,69.9986,257.5411,269.6323,90.448,-0.00014012,-1.765e-05,0.0,0 STARLINK-3060,1 49155U 21082AB  24084.56400554 -.00001765  00000-0 -14012-3 0  9996,2 49155  69.9986 257.5411 0003109 269.6323  90.4480 14.98333524140925,6950.182,96.107,574.208,569.886,0.0
49155.0,STARLINK-3060,PAYLOAD,2024-03-24 21:32:49,14.98340883,0.0002975,69.9988,256.6996,267.6789,92.4029,-5.3606e-06,-1.57e-06,0.0,0 STARLINK-3060,1 49155U 21082AB  24084.89779859 -.00000157  00000-0 -53606-5 0  9997,2 49155  69.9988 256.6996 0002975 267.6789  92.4029 14.98340883140971,6950.159,96.106,574.092,569.957,0.0
